{"fetched_at":"2026-05-15T02:58:15Z","count":8847,"tles":[{"name":"GOES 17","line1":"1 43226U 18022A   26134.22987267 -.00000168  00000+0  00000+0 0  9993","line2":"2 43226   0.8510  86.1668 0000546 324.5353 174.5505  1.00271288 30085","category":"Weather"},{"name":"METOP-C","line1":"1 43689U 18087A   26134.28197718  .00000066  00000+0  50057-4 0  9995","line2":"2 43689  98.6661 194.5015 0000286 125.7519 234.3685 14.21502417390010","category":"Weather"},{"name":"DIWATA-2B","line1":"1 43678U 18084H   26134.29049394  .00001658  00000+0  13746-3 0  9998","line2":"2 43678  98.1106 329.0456 0011917 288.1786  71.8138 15.00277600411139","category":"Other"},{"name":"STARS-AO","line1":"1 43679U 18084J   26134.16618781  .00003592  00000+0  18745-3 0  9990","line2":"2 43679  98.0542 346.0456 0000688 303.9052  56.2114 15.16658259412319","category":"Other"},{"name":"GAOFEN-6","line1":"1 43484U 18048A   26134.32452779 -.00000106  00000+0 -80758-5 0  9990","line2":"2 43484  97.7779 198.2459 0010584 287.4752  72.5301 14.76587770428398","category":"Other"},{"name":"ASNARO-2","line1":"1 43152U 18007A   26133.81060544  .00005721  00000+0  25047-3 0  9999","line2":"2 43152  97.3985 141.2721 0001782  88.4723 271.6718 15.22420539462182","category":"Other"},{"name":"HYSIS","line1":"1 43719U 18096A   26134.30872101  .00000259  00000+0  42495-4 0  9999","line2":"2 43719  97.9856 201.3190 0000871 105.8128 254.3179 14.78619714402417","category":"Other"},{"name":"PAKTES 1A","line1":"1 43529U 18056A   26134.29484816  .00000953  00000+0  83988-4 0  9997","line2":"2 43529  98.1216 289.3487 0021476 220.7947 139.1667 14.98903426426847","category":"Other"},{"name":"ZHUHAI-1 OHS-02","line1":"1 43441U 18040C   26134.30658444  .00005142  00000+0  20626-3 0  9999","line2":"2 43441  97.0399 160.4603 0009078   4.8975 355.2352 15.25367235109118","category":"Other"},{"name":"PRSS-1","line1":"1 43530U 18056B   26134.29505491  .00000761  00000+0  10252-3 0  9992","line2":"2 43530  97.7835 203.1019 0001846  94.9843 265.1581 14.81933966423410","category":"Other"},{"name":"PAZ","line1":"1 43215U 18020A   26134.31657561  .00001236  00000+0  62023-4 0  9994","line2":"2 43215  97.4457 142.1833 0001722  87.1969 272.9463 15.19153290455864","category":"Other"},{"name":"SSTL S1-4","line1":"1 43618U 18071A   26134.31465138  .00000373  00000+0  37942-4 0  9997","line2":"2 43618  97.5074   7.3300 0001038  62.3591 297.7737 14.96167806417874","category":"Other"},{"name":"JILIN-1 07","line1":"1 43159U 18008E   26134.31217954  .00005936  00000+0  18179-3 0  9998","line2":"2 43159  97.1792 155.1562 0008745 166.7864 193.3610 15.34139731459802","category":"Other"},{"name":"AUTCUBE 2","line1":"1 43681U 18084K   26134.10231239  .00002677  00000+0  16975-3 0  9992","line2":"2 43681  98.0741 338.4716 0009700 150.9040 209.2730 15.09846686411787","category":"Other"},{"name":"ES'HAIL 2","line1":"1 43700U 18090A   26134.25271515  .00000158  00000+0  00000+0 0  9998","line2":"2 43700   0.0139 274.4063 0001542 173.6669 260.7626  1.00274771 27338","category":"Other"},{"name":"LEMUR-2-KADI","line1":"1 43184U 18014E   26134.26072413  .00300274  00000+0  12153-2 0  9994","line2":"2 43184  97.4474  63.5777 0005309 106.2469 253.9386 15.85528828455694","category":"Other"},{"name":"JILIN-1 08","line1":"1 43160U 18008F   26134.29180979  .00005699  00000+0  17965-3 0  9991","line2":"2 43160  97.1822 154.4854 0006108 176.5381 183.5905 15.33254155459757","category":"Other"},{"name":"LUOJIA-1 01","line1":"1 43485U 18048B   26134.26452505  .00000782  00000+0  93048-4 0  9994","line2":"2 43485  97.8104 212.9995 0007803 226.4287 133.6282 14.87151127429176","category":"Other"},{"name":"CFOSAT","line1":"1 43662U 18083A   26134.30828972  .00002201  00000+0  11640-3 0  9995","line2":"2 43662  97.3616 139.8363 0001814  60.9075 299.2340 15.16483940417304","category":"Other"},{"name":"ZHUHAI-1 OVS-02","line1":"1 43440U 18040B   26134.30296855  .00004573  00000+0  18838-3 0  9991","line2":"2 43440  97.0410 153.5509 0004650  46.3021 313.8603 15.24553583447557","category":"Other"},{"name":"S-NET B","line1":"1 43187U 18014H   26134.29332240  .00003280  00000+0  17260-3 0  9999","line2":"2 43187  97.5399  39.2857 0010383 124.5559 235.6655 15.16307702453621","category":"Other"}]}