OBJECT_NAME,OBJECT_ID,EPOCH,MEAN_MOTION,ECCENTRICITY,INCLINATION,RA_OF_ASC_NODE,ARG_OF_PERICENTER,MEAN_ANOMALY,EPHEMERIS_TYPE,CLASSIFICATION_TYPE,NORAD_CAT_ID,ELEMENT_SET_NO,REV_AT_EPOCH,BSTAR,MEAN_MOTION_DOT,MEAN_MOTION_DDOT
ASNARO-2,2018-007A,2026-05-13T19:27:16.310016,15.22420539,.00017827,97.3985,141.2721,88.4723,271.6718,0,U,43152,999,46218,.2504714E-3,.5721E-4,0
JILIN-1 07,2018-008E,2026-05-14T07:29:32.312256,15.34139731,.00087453,97.1792,155.1562,166.7864,193.3610,0,U,43159,999,45980,.18178602E-3,.5936E-4,0
JILIN-1 08,2018-008F,2026-05-14T07:00:12.365856,15.33254155,.0006108,97.1822,154.4854,176.5381,183.5905,0,U,43160,999,45975,.17965388E-3,.5699E-4,0
LEMUR-2-KADI,2018-014E,2026-05-14T06:15:26.564832,15.85528828,.00053091,97.4474,63.5777,106.2469,253.9386,0,U,43184,999,45569,.12152562E-2,.300274E-2,0
S-NET B,2018-014H,2026-05-14T07:02:23.055360,15.16307702,.00103834,97.5399,39.2857,124.5559,235.6655,0,U,43187,999,45362,.17260369E-3,.328E-4,0
PAZ,2018-020A,2026-05-14T07:35:52.132704,15.19153290,.00017227,97.4457,142.1833,87.1969,272.9463,0,U,43215,999,45586,.62023106E-4,.1236E-4,0
GOES 17,2018-022A,2026-05-14T05:31:00.998688,1.00271288,.00005467,0.8510,86.1668,324.5353,174.5505,0,U,43226,999,3008,0,-.168E-5,0
ZHUHAI-1 OVS-02,2018-040B,2026-05-14T07:16:16.482720,15.24553583,.00046505,97.0410,153.5509,46.3021,313.8603,0,U,43440,999,44755,.18837744E-3,.4573E-4,0
ZHUHAI-1 OHS-02,2018-040C,2026-05-14T07:21:28.895616,15.25367235,.00090788,97.0399,160.4603,4.8975,355.2352,0,U,43441,999,10911,.20625533E-3,.5142E-4,0
GAOFEN-6,2018-048A,2026-05-14T07:47:19.201056,14.76587770,.00105843,97.7779,198.2459,287.4752,72.5301,0,U,43484,999,42839,-.8075758E-5,-.106E-5,0
LUOJIA-1 01,2018-048B,2026-05-14T06:20:54.964320,14.87151127,.0007803,97.8104,212.9995,226.4287,133.6282,0,U,43485,999,42917,.93047527E-4,.782E-5,0
PAKTES 1A,2018-056A,2026-05-14T07:04:34.881024,14.98903426,.00214765,98.1216,289.3487,220.7947,139.1667,0,U,43529,999,42684,.83987835E-4,.953E-5,0
PRSS-1,2018-056B,2026-05-14T07:04:52.744224,14.81933966,.00018467,97.7835,203.1019,94.9843,265.1581,0,U,43530,999,42341,.10251673E-3,.761E-5,0
SSTL S1-4,2018-071A,2026-05-14T07:33:05.879232,14.96167806,.00010386,97.5074,7.3300,62.3591,297.7737,0,U,43618,999,41787,.37942033E-4,.373E-5,0
CFOSAT,2018-083A,2026-05-14T07:23:56.231808,15.16483940,.00018149,97.3616,139.8363,60.9075,299.2340,0,U,43662,999,41730,.116404E-3,.2201E-4,0
DIWATA-2B,2018-084H,2026-05-14T06:58:18.676416,15.00277600,.00119179,98.1106,329.0456,288.1786,71.8138,0,U,43678,999,41113,.13745835E-3,.1658E-4,0
STARS-AO,2018-084J,2026-05-14T03:59:18.626784,15.16658259,.00006883,98.0542,346.0456,303.9052,56.2114,0,U,43679,999,41231,.18745468E-3,.3592E-4,0
AUTCUBE 2,2018-084K,2026-05-14T02:27:19.790496,15.09846686,.00097001,98.0741,338.4716,150.9040,209.2730,0,U,43681,999,41178,.16975227E-3,.2677E-4,0
METOP-C,2018-087A,2026-05-14T06:46:02.828352,14.21502417,.00002865,98.6661,194.5015,125.7519,234.3685,0,U,43689,999,39001,.50057331E-4,.66E-6,0
ES'HAIL 2,2018-090A,2026-05-14T06:03:54.588960,1.00274771,.00015423,0.0139,274.4063,173.6669,260.7626,0,U,43700,999,2733,0,.158E-5,0
HYSIS,2018-096A,2026-05-14T07:24:33.495264,14.78619714,.00008711,97.9856,201.3190,105.8128,254.3179,0,U,43719,999,40241,.42495228E-4,.259E-5,0
